#dP2018  1 31  0  0  0.00000000      96 __u+U ITR00 FIT  IAC
## 1986 259200.00000000   900.00000000 58149 0.0000000000000
+   86   C01C02C03C05C06C07C08C09C10C11C12C13C14E01E02E03E04
+        E05E07E08E09E11E12E14E18E19E24E26E30G01G02G03G05G06
+        G07G08G09G10G11G12G13G14G15G16G17G19G20G21G22G23G24
+        G25G26G27G28G29G30G31G32J01J02J03R01R02R03R04R05R06
+        R07R08R09R10R11R13R14R15R16R17R18R19R20R21R22R23R24
+        R26  0  0  0  0  0  0  0  0  0  0  0  0  0  0  0  0
++        12 12 12 12  9  9  9  9  9  8  8  9  8  6  6  6  6
++         7  6  6  7  7  7  7  6  6  7  6  6  4  3  4  3  3
++         3  3  4  3  4  4  3  4  4  3  3  3  3  3  4  4  4
++         4  3  3  3  3  3  4  4 11 10 11  6  5  5  5  5  5
++         5  5  5  5  5  5  5  6  5  5  6  5  5  5  5  5  6
++         8  0  0  0  0  0  0  0  0  0  0  0  0  0  0  0  0
%c M  cc GPS ccc cccc cccc cccc cccc ccccc ccccc ccccc ccccc
%c cc cc ccc ccc cccc cccc cccc cccc ccccc ccccc ccccc ccccc
%f  0.0000000  0.000000000  0.00000000000  0.000000000000000
%f  0.0000000  0.000000000  0.00000000000  0.000000000000000
%i    0    0    0    0      0      0      0      0         0
%i    0    0    0    0      0      0      0      0         0
/* INFORMATION & ANALYSIS CENTER (IAC) OF MCC   (RAPID DATA)
/* S/V CLOCKS ARE ALIGNED TO GPS & GLONASS TIME RESPECTIVELY
/* USING THE BROADCAST EPHEMERIS                            
/* PCV:IGS14_1984 OL/AL:FES2004  NONE     YN ORB:CoN CLK:CoN
*  2018 01 31  8 15  0.00000000
PC01 -32297.341253  27123.151438    350.531973    307.628388
PC02   4354.181967  41913.028432  -1144.965981   -192.785234
PC03 -14764.638872  39456.956055   -604.496714   -181.818631
PC05  21899.088936  35971.994425  -1452.233022   -136.468396
PC06 -19233.798587  37329.282618   -201.716555   -678.722948
PC07  -8198.645356  28224.837974  30493.261497   -294.267047
PC08 -20765.484645  20354.853217 -30545.200139    147.271496
PC09 -10176.901259  38342.305999  13971.208265   -449.563787
PC10   4937.897922  35571.887918  22467.239227     17.530351
PC11  10270.945297 -18820.458954  17881.346555   -373.414570
PC12  24178.435677 -13795.331226   1059.139465    376.065517
PC13  -4967.870833  23816.869489 -34445.445017   -177.738078
PC14   4644.927639 -26969.413107   5667.714346    176.122053
PE01 -18618.267650 -23010.691641    375.615198   -265.719376
PE02  18623.342773  22995.694430   -394.496709      3.305160
PE03   8833.339328  18624.933475  21242.656719      6.284890
PE04 -18415.937220   1765.197784 -23106.823386     33.376009
PE05  -5948.085632  28153.947959   6929.708688    331.162396
PE07  17223.163422 -21194.442892  11412.493395     92.498022
PE08  18258.489120  -1959.247697  23212.435784   6650.922286
PE09 -16967.067540  21355.893927 -11510.581079   6888.256379
PE11 -23471.962300  12505.427319 -12972.281118   1851.316094
PE12 -29032.973028    619.740943   5699.342309   3402.124757
PE14 -21235.712951  12775.444733   4217.882297   6638.873197
PE18  27224.165280  -5779.369897 -14817.261792   6463.201720
PE19  -7479.174529 -20112.915404 -20394.523819     18.923030
PE24 -12253.806416  10573.677168  24774.550106   6887.637357
PE26   4466.311543 -17040.496157  23795.975431   6324.212046
PE30  21842.703505   8772.309641 -17946.717177   6115.730047
PG01  20484.239193  13825.202173 -10245.496603    -26.290301
PG02   1676.669546 -15747.298575  21887.743347    213.412163
PG03  12982.459132  19951.408079  11813.672018      0.021304
PG05  -1431.171175 -25543.047792   6622.495078    -15.534665
PG06  14850.467764  -9660.095016  19824.654422    414.833699
PG07  25861.675172   5279.129295  -4438.169382    243.706932
PG08   3681.989531  16127.084105 -20693.305721    -89.526986
PG09  20312.616849  -2733.857880  16861.007767    497.511162
PG10 -12481.900096  10638.096470 -20831.924733    153.731068
PG11  17588.608991  11340.838105 -16842.040923   -735.318215
PG12 -10356.665841 -22343.345773  10034.073649    352.751905
PG13   5866.843334 -19182.939661 -17532.017975    -95.511798
PG14 -17692.538737  18970.243316   5550.567836    -93.247308
PG15  -6542.479251 -15643.183800 -20574.751446   -357.211434
PG16   -421.841879  25565.908675   6171.749477     33.144570
PG17  21404.204073 -15194.054063  -3167.119220   -126.896395
PG19  19421.022169 -17857.072550   3633.684503   -460.222719
PG20 -14508.071070 -20135.572208  -9672.974095    499.702041
PG21 -25654.815437  -2391.979598  -5715.295153   -435.783461
PG22  10834.190916  23730.060783   5182.842497   -275.409756
PG23  13549.371277   8605.304684  21466.259748   -219.042009
PG24 -18400.097261 -14563.801681 -12816.739182    -45.474569
PG25 -15398.277392 -10710.758605  18735.297834   -531.113528
PG26  -6308.833279  20473.552890  15617.717880   -267.653308
PG27  -8660.026716  20871.868620 -13815.944631    365.211916
PG28  13374.071031  -6430.824204 -21405.046151    684.597783
PG29 -18039.487476  -1906.256512  19385.577625    503.339676
PG30  23366.649697  -1132.646938 -12710.069180    107.820634
PG31 -14393.035670   9856.146126  20190.968397    144.959024
PG32 -20722.349765  16194.267694  -3399.889250   -532.955776
PJ01 -19732.899899  27606.471652 -20417.330630   -128.466489
PJ02 -25967.346247  20603.944421  30684.963543     -0.046548
PJ03 -33006.590620  26196.715111   7813.900841     -0.174219
PR01   9656.908647   7118.141602  22508.544007     21.414879
PR02  11754.065766 -13863.431417  17951.210296    292.875429
PR03   6578.885026 -24544.144868   2495.136142    122.842215
PR04  -2719.182925 -20631.075956 -14753.470326    248.084634
PR05 -10187.307860  -5274.144189 -22795.274741   -239.541627
PR06 -11558.264464  14736.128790 -17319.573311    126.155056
PR07  -6371.249277  24598.020645  -2003.331157    -28.879280
PR08   2393.070810  21000.565335  14324.287931    -27.025105
PR09 -13758.217643   1238.782128  21442.820993     47.230321
PR10   1078.679777  14257.742073  21122.569519     17.153021
PR11  14937.802166  19110.375092   7967.968107    -20.709548
PR13  13092.783430  -1913.771247 -21826.347665     -7.022290
PR14   -626.092344 -14204.399815 -21165.867941     24.304371
PR15 -12841.825485 -19017.130753 -11246.827064     -5.856463
PR16 -20377.312895 -12596.955283   8905.266746     84.496061
PR17  12691.149300 -12721.601244  18104.061318    105.373926
PR18  -4995.244976  -9546.762031  23137.450504    183.098738
PR19 -20450.486037  -1230.905049  15201.692388    -43.126346
PR20 -23951.364538   8239.448029  -2767.174841   -325.427780
PR21 -12536.795243  12684.572283 -18239.753758     21.076333
PR22   7059.401611   8738.756886 -22902.933205    -14.837314
PR23  22251.666499   -951.267669 -12439.600734    133.455368
PR24  23657.576518  -8929.938749   3401.131947   -161.824738
PR26 -23858.992017   8660.646170  -2622.475643     -3.450511
EOF
